     2.11           N: GPS NAV DATA     G                   RINEX VERSION / TYPE
LEICA GEO OFFICE 8.4                    22-5-25 16:36       PGM / RUN BY / DATE
    18                                                      LEAP SECONDS
                                                            END OF HEADER
11 25  5 20  8  0  0.0-7.103821262717D-04 6.593836587854D-12 0.000000000000D+00
    5.900000000000D+01 4.075000000000D+01 4.174816936597D-09-1.278667074279D+00
    2.091750502586D-06 1.756685320288D-03 7.852911949158D-06 5.153664392471D+03
    2.016000000000D+05 1.154839992523D-07 1.961456100691D+00-2.980232238770D-08
    9.653409668061D-01 2.346250000000D+02-2.412804984292D+00-7.981046934447D-09
   -8.214627589265D-11 1.000000000000D+00 2.367000000000D+03 0.000000000000D+00
    2.000000000000D+00 0.000000000000D+00-8.847564458847D-09 5.900000000000D+01
    2.016000000000D+05
11 25  5 20 10  0  0.0-7.103341631591D-04 6.707523425575D-12 0.000000000000D+00
    6.000000000000D+01 3.596875000000D+01 4.300536371460D-09-2.288365933569D-01
    1.864507794380D-06 1.755507430062D-03 8.169561624527D-06 5.153661968231D+03
    2.088000000000D+05 3.911554813385D-08 1.961398353463D+00 3.166496753693D-08
    9.653399383746D-01 2.250937500000D+02-2.412450642127D+00-8.064264811480D-09
   -9.678974288718D-11 1.000000000000D+00 2.367000000000D+03 0.000000000000D+00
    2.000000000000D+00 0.000000000000D+00-8.847564458847D-09 6.000000000000D+01
    2.088000000000D+05
12 25  5 20  6  0  0.0-5.852165631950D-04-1.591615728103D-12 0.000000000000D+00
    6.400000000000D+01 2.675000000000D+01 4.846273160553D-09 1.152886927054D+00
    1.154839992523D-06 8.822481031530D-03 6.962567567825D-06 5.153682001114D+03
    1.944000000000D+05-1.508742570877D-07-1.094540136447D-01-1.192092895508D-07
    9.606381928138D-01 2.465625000000D+02 1.507314737618D+00-8.223913994243D-09
   -9.857553662229D-11 1.000000000000D+00 2.367000000000D+03 0.000000000000D+00
    2.000000000000D+00 0.000000000000D+00-1.257285475731D-08 6.400000000000D+01
    1.944000000000D+05
12 25  5 20  8  0  0.0-5.852282047272D-04-1.591615728103D-12 0.000000000000D+00
    6.600000000000D+01 3.003125000000D+01 4.802342967736D-09 2.202960925319D+00
    1.357868313789D-06 8.822203264572D-03 6.249174475670D-06 5.153683782578D+03
    2.016000000000D+05 5.215406417847D-08-1.095124338153D-01-1.229345798492D-07
    9.606383932336D-01 2.528125000000D+02 1.507418401456D+00-8.026763254065D-09
   -9.786121912825D-11 1.000000000000D+00 2.367000000000D+03 0.000000000000D+00
    2.000000000000D+00 0.000000000000D+00-1.257285475731D-08 6.600000000000D+01
    2.016000000000D+05
12 25  5 20 14  0  0.0-5.852631293237D-04-1.591615728103D-12 0.000000000000D+00
    7.200000000000D+01 3.931250000000D+01 4.935205577539D-09-9.299061080362D-01
    2.179294824600D-06 8.821016061120D-03 7.525086402893D-06 5.153683908463D+03
    2.232000000000D+05-1.359730958939D-07-1.096890402117D-01 9.499490261078D-08
    9.606395518647D-01 2.420312500000D+02 1.507629954039D+00-8.291774378222D-09
    2.007226468370D-10 1.000000000000D+00 2.367000000000D+03 0.000000000000D+00
    2.000000000000D+00 0.000000000000D+00-1.257285475731D-08 7.200000000000D+01
    2.232000000000D+05
13 25  5 20  8  0  0.0 7.011471316218D-04 1.136868377216D-13 0.000000000000D+00
    1.390000000000D+02-7.615625000000D+01 4.334109071635D-09-7.704471815890D-01
   -3.799796104431D-06 9.167211945169D-03 7.634982466698D-06 5.153684465408D+03
    2.016000000000D+05 0.000000000000D+00-2.128055825793D+00 1.769512891769D-07
    9.736270723213D-01 2.405625000000D+02 9.555324624253D-01-8.065693002379D-09
    1.892935981573D-11 1.000000000000D+00 2.367000000000D+03 0.000000000000D+00
    2.000000000000D+00 0.000000000000D+00-1.164153218269D-08 1.390000000000D+02
    2.016000000000D+05
13 25  5 20  9 59 44.0 7.011466659606D-04 1.136868377216D-13 0.000000000000D+00
    0.000000000000D+00-7.500000000000D+01 4.272320719423D-09 2.774472530660D-01
   -4.006549715996D-06 9.167420095764D-03 7.361173629761D-06 5.153685104370D+03
    2.087840000000D+05-9.499490261078D-08-2.128113991416D+00 1.061707735062D-07
    9.736271279122D-01 2.475000000000D+02 9.554763258699D-01-8.096051828943D-09
    3.928734941538D-12 1.000000000000D+00 2.367000000000D+03 0.000000000000D+00
    2.000000000000D+00 0.000000000000D+00-1.164153218269D-08 0.000000000000D+00
    2.087840000000D+05
13 25  5 20 10  0  0.0 7.011485286057D-04 1.136868377216D-13 0.000000000000D+00
    1.400000000000D+02-7.500000000000D+01 4.272320719423D-09 2.797811296642D-01
   -4.008412361145D-06 9.167420095764D-03 7.361173629761D-06 5.153685100555D+03
    2.088000000000D+05-9.499490261078D-08-2.128114139170D+00 1.061707735062D-07
    9.736271103572D-01 2.475000000000D+02 9.554761898185D-01-8.096051828943D-09
    4.285892821199D-12 1.000000000000D+00 2.367000000000D+03 0.000000000000D+00
    2.800000000000D+00 0.000000000000D+00-1.164153218269D-08 1.400000000000D+02
    2.088000000000D+05
13 25  5 20 11 59 44.0 7.011480629444D-04 1.136868377216D-13 0.000000000000D+00
    3.000000000000D+00-8.412500000000D+01 4.215175763989D-09 1.327515079280D+00
   -4.427507519722D-06 9.167643496767D-03 7.389113306999D-06 5.153686721802D+03
    2.159840000000D+05-1.061707735062D-07-2.128171895176D+00-2.607703208923D-08
    9.736267373131D-01 2.449375000000D+02 9.555803920104D-01-8.090694336715D-09
   -7.821754355319D-11 1.000000000000D+00 2.367000000000D+03 0.000000000000D+00
    2.000000000000D+00 0.000000000000D+00-1.164153218269D-08 3.000000000000D+00
    2.159840000000D+05
15 25  5 20  8  0  0.0 2.981009893119D-04 4.092726157978D-12 0.000000000000D+00
    5.400000000000D+01-7.125000000000D+01 5.078425679983D-09-1.573720161681D+00
   -3.276392817497D-06 1.622431003489D-02 5.893409252167D-06 5.153582477570D+03
    2.016000000000D+05 1.676380634308D-07-2.436185855982D+00 3.445893526077D-07
    9.391491477659D-01 2.475312500000D+02 1.417611913043D+00-8.357847747220D-09
    4.785913679251D-11 1.000000000000D+00 2.367000000000D+03 0.000000000000D+00
    2.000000000000D+00 0.000000000000D+00-1.024454832077D-08 5.400000000000D+01
    2.016000000000D+05
15 25  5 20 10  0  0.0 2.981303259730D-04 4.092726157978D-12 0.000000000000D+00
    5.800000000000D+01-6.215625000000D+01 5.095569299840D-09-5.233835959533D-01
   -3.168359398842D-06 1.622524380218D-02 5.936250090599D-06 5.153585950851D+03
    2.088000000000D+05-1.806765794754D-07-2.436248341602D+00 1.210719347000D-07
    9.391480959278D-01 2.570312500000D+02 1.417515594517D+00-8.748578750328D-09
    1.185763709444D-10 1.000000000000D+00 2.367000000000D+03 0.000000000000D+00
    2.000000000000D+00 0.000000000000D+00-1.024454832077D-08 5.800000000000D+01
    2.088000000000D+05
15 25  5 20 12  0  0.0 2.981601282954D-04 4.092726157978D-12 0.000000000000D+00
    5.900000000000D+01-6.387500000000D+01 5.149857429387D-09 5.268620933038D-01
   -3.345310688019D-06 1.622378360480D-02 5.520880222321D-06 5.153583133698D+03
    2.160000000000D+05-2.160668373108D-07-2.436310220111D+00-1.490116119385D-07
    9.391483680306D-01 2.672812500000D+02 1.417508819744D+00-8.734649448172D-09
   -9.178953430666D-11 1.000000000000D+00 2.367000000000D+03 0.000000000000D+00
    2.000000000000D+00 0.000000000000D+00-1.024454832077D-08 5.900000000000D+01
    2.160000000000D+05
15 25  5 20 14  0  0.0 2.981894649565D-04 4.092726157978D-12 0.000000000000D+00
    6.000000000000D+01-7.900000000000D+01 5.060925012401D-09 1.576968306488D+00
   -4.427507519722D-06 1.622472761665D-02 5.062669515610D-06 5.153587612152D+03
    2.232000000000D+05-1.862645149231D-08-2.436373230919D+00-3.650784492493D-07
    9.391483168285D-01 2.748437500000D+02 1.417642442681D+00-8.568571630008D-09
   -6.643133959594D-11 1.000000000000D+00 2.367000000000D+03 0.000000000000D+00
    2.000000000000D+00 0.000000000000D+00-1.024454832077D-08 6.000000000000D+01
    2.232000000000D+05
16 25  5 20  9 59 44.0 1.959782093763D-05 8.526512829121D-12 0.000000000000D+00
    3.000000000000D+01 2.887500000000D+01 5.035924122154D-09 1.515483735078D+00
    1.529231667519D-06 1.445195777342D-02 7.251277565956D-06 5.153732921600D+03
    2.087840000000D+05-3.371387720108D-07-9.218417501805D-02 5.960464477539D-08
    9.599250656006D-01 2.447187500000D+02 8.855988910342D-01-8.322489364332D-09
   -9.643258414016D-12 1.000000000000D+00 2.367000000000D+03 0.000000000000D+00
    2.000000000000D+00 0.000000000000D+00-1.024454832077D-08 3.000000000000D+01
    2.087840000000D+05
17 25  5 20  6  0  0.0 2.730623818934D-04-1.773514668457D-11 0.000000000000D+00
    6.700000000000D+01 2.015625000000D+01 4.464828951001D-09-1.572253480977D+00
    1.113861799240D-06 1.305410277564D-02 7.690861821175D-06 5.153687917709D+03
    1.944000000000D+05-2.514570951462D-07 9.273186843282D-01 2.738088369370D-07
    9.635513162142D-01 2.367812500000D+02-1.214856271480D+00-8.137124751784D-09
   -4.282321164339D-10 1.000000000000D+00 2.367000000000D+03 0.000000000000D+00
    2.000000000000D+00 0.000000000000D+00-1.117587089539D-08 6.700000000000D+01
    1.944000000000D+05
18 25  5 20  8  0  0.0-6.229020655155D-04 5.115907697473D-12 0.000000000000D+00
    2.500000000000D+01 6.628125000000D+01 3.915162860579D-09-2.537834369274D+00
    3.345310688019D-06 5.086513236165D-03 8.584931492805D-06 5.153697122574D+03
    2.016000000000D+05-2.048909664154D-08 1.935349606348D+00 5.587935447693D-09
    9.734970057378D-01 2.220625000000D+02-2.958857266842D+00-7.806039370450D-09
    4.000166517470D-11 1.000000000000D+00 2.367000000000D+03 0.000000000000D+00
    2.000000000000D+00 0.000000000000D+00-8.381903171539D-09 5.370000000000D+02
    2.016000000000D+05
